0 IRIDIUM 57
1 25273U 98019B   24029.00274705  .00000533  00000-0  18018-3 0  9990
2 25273  86.3989 356.8188 0002188  87.5045 272.6402 14.35061857352521
0 IRIDIUM 63
1 25286U 98021B   24028.79957281  .00000619  00000-0  20817-3 0  9994
2 25286  86.3987 293.8392 0002262  88.2056 271.9400 14.35586113351316
0 IRIDIUM 69
1 25319U 98026A   24028.86111121  .00000897  00000-0  28017-3 0  9997
2 25319  86.4005 308.6173 0000655 177.9417 182.1785 14.39777594350326
0 IRIDIUM 71
1 25320U 98026B   24029.17032439  .00000705  00000-0  21723-3 0  9993
2 25320  86.3991 303.2825 0001653  20.9262 339.2004 14.40099151351137
0 IRIDIUM 73
1 25344U 98032C   24029.11338089  .00000757  00000-0  18940-3 0  9994
2 25344  86.4394 260.9326 0001483  94.9046 265.2328 14.50266688357627
0 IRIDIUM 82
1 25467U 98051A   24028.93812560  .00020140  00000-0  11104-2 0  9993
2 25467  86.3960 351.9889 0139624  15.4881 345.0559 15.05798533347352
0 IRIDIUM 2
1 25527U 98066A   24028.81453357  .00060575  00000-0  98234-3 0  9994
2 25527  85.5133  32.9342 0007271 118.0111 242.1885 15.52505059385947
